#aV2022  8 11  0  0  0.00000000     288 DD+AD WGS84 FIT  NGA
## 2222 345600.00000000   300.00000000 59802 0.0000000000000
+   32     1  2  3  4  5  6  7  8  9 10 11 12 13 14 15 16 17
+         18 19 20 21 22 23 24 25 26 27 28 29 30 31 32  0  0
+          0  0  0  0  0  0  0  0  0  0  0  0  0  0  0  0  0
+          0  0  0  0  0  0  0  0  0  0  0  0  0  0  0  0  0
+          0  0  0  0  0  0  0  0  0  0  0  0  0  0  0  0  0
++         2  2  2  2  2  2  2  2  2  2  2  2  2  2  2  2  2
++         2  2  2  2  2  2  2  2  2  2  2  2  2  2  2  0  0
++         0  0  0  0  0  0  0  0  0  0  0  0  0  0  0  0  0
++         0  0  0  0  0  0  0  0  0  0  0  0  0  0  0  0  0
++         0  0  0  0  0  0  0  0  0  0  0  0  0  0  0  0  0
%c cc cc ccc ccc cccc cccc cccc cccc ccccc ccccc ccccc ccccc
%c cc cc ccc ccc cccc cccc cccc cccc ccccc ccccc ccccc ccccc
%f  0.0000000  0.000000000  0.00000000000  0.000000000000000
%f  0.0000000  0.000000000  0.00000000000  0.000000000000000
%i    0    0    0    0      0      0      0      0         0
%i    0    0    0    0      0      0      0      0         0
/*      NGA, ST. LOUIS,MO.                                  
/*   EPHEMERIS COMPUTED FROM 2 DAYS OF DATA                 
/*   EPOCHA v8 SMOOTHER                                     
/*   G2139 IERS2010 SATIGS SATAPC                           
*  2022  8 11  7 10  0.00000000
P  1  10837.539621 -20509.532354 -12924.187561    304.226074                    
V  1  13276.339856  -9090.400433  26513.791947     -0.070628                    
P  2 -19368.178853  18148.435355  -1871.447915   -649.399692                    
V  2    357.198475  -4011.210151 -31645.606939      0.009675                    
P  3   3478.216853 -14598.924562 -22038.825712   -329.162757                    
V  3  26216.194642   8764.651139  -1570.736774     -0.085295                    
P  4   2478.416681 -24699.004861  -9314.343312   -134.541066                    
V  4   4496.245166  11277.899145 -28782.383720      0.050169                    
P  5 -17189.421766   8328.355200  18339.449556    -92.458748                    
V  5 -22252.179084  -7977.520080 -16935.320577     -0.014179                    
P  6 -19435.333329   1142.834119 -18043.192810    420.724577                    
V  6  16558.598456 -15915.235117 -18708.911114      0.143497                    
P  7  -4689.035856 -15901.145252  21072.267634    315.185050                    
V  7  20199.300158 -16323.924029  -8473.419849     -0.021022                    
P  8   7257.394336 -19448.180300  16321.693501    -79.999810                    
V  8   6600.075654  19975.517716  21161.359523     -0.016205                    
P  9  -6763.725160 -25618.747372   1467.547312   -309.465081                    
V  9   2530.973112  -2563.305133 -31581.157626      0.042305                    
P 10  23408.847025  11736.132691   5475.672492   -523.954310                    
V 10  -6995.203391   -191.963769  30862.499838     -0.134305                    
P 11 -22834.230752  10679.184155  -8320.875668    -10.960921                    
V 11   6701.720218  -8561.529613 -29420.106723     -0.009066                    
P 12  -6564.631495  13697.972114 -22051.858390   -260.496856                    
V 12 -25182.530837 -10652.743243    992.380118     -0.059612                    
P 13 -13115.948563  11014.123645  20089.866819    365.719027                    
V 13  -2746.071725 -25771.549334  12415.695009      0.072116                    
P 14 -22065.187851 -13358.008550   6570.279586   -109.657375                    
V 14   8802.243039    251.814362  29994.959538      0.014130                    
P 15  -5291.596345  20368.576670  15593.546433    -38.203821                    
V 15  -9418.565437 -18750.652795  21037.380690      0.030539                    
P 16  21952.407372  -1558.515483  14917.789681   -519.949335                    
V 16  16928.593004   9276.483384 -23066.795677     -0.017078                    
P 17 -12596.056096 -17557.251545 -14971.358928    647.138350                    
V 17   -902.202013 -19837.773582  23405.992076      0.041044                    
P 18   4281.985477  15353.211819  21213.519957     85.458613                    
V 18 -20994.816257  16912.662918  -8123.537832     -0.120329                    
P 19 -14830.000790  -8205.467466 -20760.557384    195.664450                    
V 19  -1724.533046 -25637.179242  11267.873266      0.050297                    
P 20 -24990.014769   2012.720299   8414.368986    495.752977                    
V 20 -10087.442978  -4989.954347 -29007.932440     -0.031489                    
P 21  16697.241661 -19900.275975  -2534.190333    160.581636                    
V 21   5314.419182   -496.785319  32003.947649     -0.003038                    
P 22  15188.060330   5105.994492 -20795.975695    307.858364                    
V 22   2473.183886  27235.469645   8156.340234      0.066040                    
P 23  16297.382633  15313.096883  14410.457070    -36.484049                    
V 23 -17992.027415  -3580.240257  24014.884421     -0.013210                    
P 24 -12404.781321  21801.215212  -8373.602083    171.773392                    
V 24  -9831.223535   4940.768254  28899.472143     -0.113039                    
P 25   8008.604995  16924.651759 -19226.285088    359.533994                    
V 25 -22930.588166  -6248.669579 -15013.682014      0.042924                    
P 26  25930.567976   2633.137439   5837.215644    223.092244                    
V 26   6373.688081   5059.224637 -29829.868140      0.019575                    
P 27  13546.609592  -7001.382634  21488.273034    219.737323                    
V 27   6126.334593  27139.527811   5310.908994     -0.014404                    
P 28 -24555.030279  -9480.150183  -1883.660980    340.116759                    
V 28  -1609.620386  -3824.416061  31937.646242      0.010990                    
P 29   4263.380601  26125.107085   1503.934215   -541.774784                    
V 29  -2001.880906   2234.004017 -32161.904594     -0.033515                    
P 30 -14377.680759  -8041.549828  20963.785844   -535.692090                    
V 30  19695.816525 -17688.505488   6498.175376     -0.006030                    
P 31  21213.484870  -2899.755629 -16145.419339   -189.212673                    
V 31 -14273.394697  14227.859294 -21034.223380     -0.014080                    
P 32  14899.808432  14417.376747 -16559.709311   -200.682959                    
V 32   2615.294899  21153.272613  20396.943306     -0.105667                    
EOF
